SL-14 R/B               
1 16496U 86006B   26090.86370418  .00001261  00000+0  13134-3 0  9994
2 16496  82.5256 238.8633 0076032 198.1523 161.6978 14.86852754152507
COSMOS 1743             
1 16719U 86034A   26090.84424792  .00053979  00000+0  65288-3 0  9996
2 16719  82.5310  50.5454 0005010 162.9882 197.1544 15.60466996183702
SL-14 R/B               
1 16792U 86046B   26090.89964215  .00000669  00000+0  74072-4 0  9994
2 16792  82.4808  59.1913 0023812 151.1583 209.0955 14.85612870129706
SL-14 R/B               
1 16882U 86055B   26090.78060781  .00000617  00000+0  68290-4 0  9995
2 16882  82.5169 105.9045 0017341 258.1704 274.8926 14.85663010122642
AJISAI (EGS)            
1 16908U 86061A   26090.88781459 -.00000108  00000+0 -75139-4 0  9991
2 16908  50.0117  25.0878 0011350 344.1795 119.2560 12.44515614470764
SL-14 R/B               
1 17567U 87024B   26090.65562877  .00000669  00000+0  73386-4 0  9991
2 17567  82.5257  72.1119 0018067 183.0579 177.0530 14.86154042 91393
COSMOS 1833             
1 17589U 87027A   26090.87591691 -.00000294  00000+0 -13114-3 0  9996
2 17589  70.9168 279.3854 0023123 181.6644 178.4404 14.13046008 13450
SL-16 R/B               
1 17590U 87027B   26090.78521866  .00000186  00000+0  11585-3 0  9993
2 17590  71.0019 229.9302 0002882  87.8147 272.3306 14.17166527 18477
SL-14 R/B               
1 17912U 87038B   26090.86396492  .00000648  00000+0  72179-4 0  9997
2 17912  82.4977 275.9121 0020771  91.3501 269.0095 14.85390228 82522
COSMOS 1844             
1 17973U 87041A   26090.88745972  .00000411  00000+0  23832-3 0  9990
2 17973  70.9016 347.3568 0031253 345.3594  14.6619 14.14559253  6726
SL-14 R/B               
1 18153U 87055B   26090.90425997  .00000550  00000+0  60510-4 0  9990
2 18153  82.5002 328.0972 0019350 302.6643  57.2706 14.85651679 73234
COSMOS 1867             
1 18187U 87060A   26090.79694031 -.00000020  00000+0  30122-4 0  9996
2 18187  65.0097 244.7906 0014877 279.9444  79.9961 14.31506548 23106
SL-14 R/B               
1 18749U 88001B   26090.29495422  .00000631  00000+0  69978-4 0  9992
2 18749  82.5159 175.0463 0018544 162.4860 197.7000 14.85551831 45235
COSMOS 1933             
1 18958U 88020A   26090.87141683  .00006276  00000+0  30544-3 0  9993
2 18958  82.5124 228.9600 0005432 116.1924 243.9869 15.18198156 53598
SL-3 R/B                
1 19046U 88032B   26090.85151236  .00006608  00000+0  30576-3 0  9992
2 19046  97.5213  74.0317 0026671 153.0572 207.2054 15.20156977 55470
SL-16 R/B               
1 19120U 88039B   26090.89416872  .00000068  00000+0  54832-4 0  9992
2 19120  71.0172  21.5954 0023740 302.5935  57.2897 14.19620227961538
COSMOS 1953             
1 19210U 88050A   26090.16108971  .00008988  00000+0  31871-3 0  9999
2 19210  82.5073 136.6473 0012214  55.6435 304.5958 15.28860160 41060
