[{"OBJECT_NAME":"SL-14 R/B","OBJECT_ID":"1986-006B","EPOCH":"2026-03-31T20:43:44.041152","MEAN_MOTION":14.86852754,"ECCENTRICITY":0.0076032,"INCLINATION":82.5256,"RA_OF_ASC_NODE":238.8633,"ARG_OF_PERICENTER":198.1523,"MEAN_ANOMALY":161.6978,"EPHEMERIS_TYPE":0,"CLASSIFICATION_TYPE":"U","NORAD_CAT_ID":16496,"ELEMENT_SET_NO":999,"REV_AT_EPOCH":15250,"BSTAR":0.00013134,"MEAN_MOTION_DOT":1.261e-5,"MEAN_MOTION_DDOT":0},{"OBJECT_NAME":"COSMOS 1743","OBJECT_ID":"1986-034A","EPOCH":"2026-03-31T20:15:43.020288","MEAN_MOTION":15.60466996,"ECCENTRICITY":0.000501,"INCLINATION":82.531,"RA_OF_ASC_NODE":50.5454,"ARG_OF_PERICENTER":162.9882,"MEAN_ANOMALY":197.1544,"EPHEMERIS_TYPE":0,"CLASSIFICATION_TYPE":"U","NORAD_CAT_ID":16719,"ELEMENT_SET_NO":999,"REV_AT_EPOCH":18370,"BSTAR":0.00065288,"MEAN_MOTION_DOT":0.00053979,"MEAN_MOTION_DDOT":0},{"OBJECT_NAME":"SL-14 R/B","OBJECT_ID":"1986-046B","EPOCH":"2026-03-31T21:35:29.081760","MEAN_MOTION":14.8561287,"ECCENTRICITY":0.0023812,"INCLINATION":82.4808,"RA_OF_ASC_NODE":59.1913,"ARG_OF_PERICENTER":151.1583,"MEAN_ANOMALY":209.0955,"EPHEMERIS_TYPE":0,"CLASSIFICATION_TYPE":"U","NORAD_CAT_ID":16792,"ELEMENT_SET_NO":999,"REV_AT_EPOCH":12970,"BSTAR":7.4072e-5,"MEAN_MOTION_DOT":6.69e-6,"MEAN_MOTION_DDOT":0},{"OBJECT_NAME":"SL-14 R/B","OBJECT_ID":"1986-055B","EPOCH":"2026-03-31T18:44:04.514784","MEAN_MOTION":14.8566301,"ECCENTRICITY":0.0017341,"INCLINATION":82.5169,"RA_OF_ASC_NODE":105.9045,"ARG_OF_PERICENTER":258.1704,"MEAN_ANOMALY":274.8926,"EPHEMERIS_TYPE":0,"CLASSIFICATION_TYPE":"U","NORAD_CAT_ID":16882,"ELEMENT_SET_NO":999,"REV_AT_EPOCH":12264,"BSTAR":6.829e-5,"MEAN_MOTION_DOT":6.17e-6,"MEAN_MOTION_DDOT":0},{"OBJECT_NAME":"AJISAI (EGS)","OBJECT_ID":"1986-061A","EPOCH":"2026-03-31T21:18:27.180576","MEAN_MOTION":12.44515614,"ECCENTRICITY":0.001135,"INCLINATION":50.0117,"RA_OF_ASC_NODE":25.0878,"ARG_OF_PERICENTER":344.1795,"MEAN_ANOMALY":119.256,"EPHEMERIS_TYPE":0,"CLASSIFICATION_TYPE":"U","NORAD_CAT_ID":16908,"ELEMENT_SET_NO":999,"REV_AT_EPOCH":47076,"BSTAR":-7.5139e-5,"MEAN_MOTION_DOT":-1.08e-6,"MEAN_MOTION_DDOT":0},{"OBJECT_NAME":"SL-14 R/B","OBJECT_ID":"1987-024B","EPOCH":"2026-03-31T15:44:06.325728","MEAN_MOTION":14.86154042,"ECCENTRICITY":0.0018067,"INCLINATION":82.5257,"RA_OF_ASC_NODE":72.1119,"ARG_OF_PERICENTER":183.0579,"MEAN_ANOMALY":177.053,"EPHEMERIS_TYPE":0,"CLASSIFICATION_TYPE":"U","NORAD_CAT_ID":17567,"ELEMENT_SET_NO":999,"REV_AT_EPOCH":9139,"BSTAR":7.3386e-5,"MEAN_MOTION_DOT":6.69e-6,"MEAN_MOTION_DDOT":0},{"OBJECT_NAME":"COSMOS 1833","OBJECT_ID":"1987-027A","EPOCH":"2026-03-31T21:01:19.221024","MEAN_MOTION":14.13046008,"ECCENTRICITY":0.0023123,"INCLINATION":70.9168,"RA_OF_ASC_NODE":279.3854,"ARG_OF_PERICENTER":181.6644,"MEAN_ANOMALY":178.4404,"EPHEMERIS_TYPE":0,"CLASSIFICATION_TYPE":"U","NORAD_CAT_ID":17589,"ELEMENT_SET_NO":999,"REV_AT_EPOCH":1345,"BSTAR":-0.00013114,"MEAN_MOTION_DOT":-2.94e-6,"MEAN_MOTION_DDOT":0},{"OBJECT_NAME":"SL-16 R/B","OBJECT_ID":"1987-027B","EPOCH":"2026-03-31T18:50:42.892224","MEAN_MOTION":14.17166527,"ECCENTRICITY":0.0002882,"INCLINATION":71.0019,"RA_OF_ASC_NODE":229.9302,"ARG_OF_PERICENTER":87.8147,"MEAN_ANOMALY":272.3306,"EPHEMERIS_TYPE":0,"CLASSIFICATION_TYPE":"U","NORAD_CAT_ID":17590,"ELEMENT_SET_NO":999,"REV_AT_EPOCH":1847,"BSTAR":0.00011585,"MEAN_MOTION_DOT":1.86e-6,"MEAN_MOTION_DDOT":0},{"OBJECT_NAME":"SL-14 R/B","OBJECT_ID":"1987-038B","EPOCH":"2026-03-31T20:44:06.569088","MEAN_MOTION":14.85390228,"ECCENTRICITY":0.0020771,"INCLINATION":82.4977,"RA_OF_ASC_NODE":275.9121,"ARG_OF_PERICENTER":91.3501,"MEAN_ANOMALY":269.0095,"EPHEMERIS_TYPE":0,"CLASSIFICATION_TYPE":"U","NORAD_CAT_ID":17912,"ELEMENT_SET_NO":999,"REV_AT_EPOCH":8252,"BSTAR":7.2179e-5,"MEAN_MOTION_DOT":6.48e-6,"MEAN_MOTION_DDOT":0},{"OBJECT_NAME":"COSMOS 1844","OBJECT_ID":"1987-041A","EPOCH":"2026-03-31T21:17:56.519808","MEAN_MOTION":14.14559253,"ECCENTRICITY":0.0031253,"INCLINATION":70.9016,"RA_OF_ASC_NODE":347.3568,"ARG_OF_PERICENTER":345.3594,"MEAN_ANOMALY":14.6619,"EPHEMERIS_TYPE":0,"CLASSIFICATION_TYPE":"U","NORAD_CAT_ID":17973,"ELEMENT_SET_NO":999,"REV_AT_EPOCH":672,"BSTAR":0.00023832,"MEAN_MOTION_DOT":4.11e-6,"MEAN_MOTION_DDOT":0},{"OBJECT_NAME":"SL-14 R/B","OBJECT_ID":"1987-055B","EPOCH":"2026-03-31T21:42:08.061408","MEAN_MOTION":14.85651679,"ECCENTRICITY":0.001935,"INCLINATION":82.5002,"RA_OF_ASC_NODE":328.0972,"ARG_OF_PERICENTER":302.6643,"MEAN_ANOMALY":57.2706,"EPHEMERIS_TYPE":0,"CLASSIFICATION_TYPE":"U","NORAD_CAT_ID":18153,"ELEMENT_SET_NO":999,"REV_AT_EPOCH":7323,"BSTAR":6.051e-5,"MEAN_MOTION_DOT":5.5e-6,"MEAN_MOTION_DDOT":0},{"OBJECT_NAME":"COSMOS 1867","OBJECT_ID":"1987-060A","EPOCH":"2026-03-31T19:07:35.642784","MEAN_MOTION":14.31506548,"ECCENTRICITY":0.0014877,"INCLINATION":65.0097,"RA_OF_ASC_NODE":244.7906,"ARG_OF_PERICENTER":279.9444,"MEAN_ANOMALY":79.9961,"EPHEMERIS_TYPE":0,"CLASSIFICATION_TYPE":"U","NORAD_CAT_ID":18187,"ELEMENT_SET_NO":999,"REV_AT_EPOCH":2310,"BSTAR":3.0122e-5,"MEAN_MOTION_DOT":-2.0e-7,"MEAN_MOTION_DDOT":0},{"OBJECT_NAME":"SL-14 R/B","OBJECT_ID":"1988-001B","EPOCH":"2026-03-31T07:04:44.044608","MEAN_MOTION":14.85551831,"ECCENTRICITY":0.00185449,"INCLINATION":82.5159,"RA_OF_ASC_NODE":175.0463,"ARG_OF_PERICENTER":162.486,"MEAN_ANOMALY":197.7,"EPHEMERIS_TYPE":0,"CLASSIFICATION_TYPE":"U","NORAD_CAT_ID":18749,"ELEMENT_SET_NO":999,"REV_AT_EPOCH":4523,"BSTAR":6.9977647e-5,"MEAN_MOTION_DOT":6.31e-6,"MEAN_MOTION_DDOT":0},{"OBJECT_NAME":"COSMOS 1933","OBJECT_ID":"1988-020A","EPOCH":"2026-03-31T20:54:50.414112","MEAN_MOTION":15.18198156,"ECCENTRICITY":0.0005432,"INCLINATION":82.5124,"RA_OF_ASC_NODE":228.96,"ARG_OF_PERICENTER":116.1924,"MEAN_ANOMALY":243.9869,"EPHEMERIS_TYPE":0,"CLASSIFICATION_TYPE":"U","NORAD_CAT_ID":18958,"ELEMENT_SET_NO":999,"REV_AT_EPOCH":5359,"BSTAR":0.00030544,"MEAN_MOTION_DOT":6.276e-5,"MEAN_MOTION_DDOT":0},{"OBJECT_NAME":"SL-3 R/B","OBJECT_ID":"1988-032B","EPOCH":"2026-03-31T20:26:10.667904","MEAN_MOTION":15.20156977,"ECCENTRICITY":0.0026671,"INCLINATION":97.5213,"RA_OF_ASC_NODE":74.0317,"ARG_OF_PERICENTER":153.0572,"MEAN_ANOMALY":207.2054,"EPHEMERIS_TYPE":0,"CLASSIFICATION_TYPE":"U","NORAD_CAT_ID":19046,"ELEMENT_SET_NO":999,"REV_AT_EPOCH":5547,"BSTAR":0.00030576,"MEAN_MOTION_DOT":6.608e-5,"MEAN_MOTION_DDOT":0},{"OBJECT_NAME":"SL-16 R/B","OBJECT_ID":"1988-039B","EPOCH":"2026-03-31T21:27:36.177408","MEAN_MOTION":14.19620227,"ECCENTRICITY":0.002374,"INCLINATION":71.0172,"RA_OF_ASC_NODE":21.5954,"ARG_OF_PERICENTER":302.5935,"MEAN_ANOMALY":57.2897,"EPHEMERIS_TYPE":0,"CLASSIFICATION_TYPE":"U","NORAD_CAT_ID":19120,"ELEMENT_SET_NO":999,"REV_AT_EPOCH":96153,"BSTAR":5.4832e-5,"MEAN_MOTION_DOT":6.8e-7,"MEAN_MOTION_DDOT":0},{"OBJECT_NAME":"COSMOS 1953","OBJECT_ID":"1988-050A","EPOCH":"2026-03-31T03:51:58.150944","MEAN_MOTION":15.2886016,"ECCENTRICITY":0.0012214,"INCLINATION":82.5073,"RA_OF_ASC_NODE":136.6473,"ARG_OF_PERICENTER":55.6435,"MEAN_ANOMALY":304.5958,"EPHEMERIS_TYPE":0,"CLASSIFICATION_TYPE":"U","NORAD_CAT_ID":19210,"ELEMENT_SET_NO":999,"REV_AT_EPOCH":4106,"BSTAR":0.00031871,"MEAN_MOTION_DOT":8.988e-5,"MEAN_MOTION_DDOT":0}]
